[{"OBJECT_NAME":"STARLINK-4135","OBJECT_ID":"2022-086G","EPOCH":"2026-03-09T15:23:11.393376","MEAN_MOTION":15.0883614,"ECCENTRICITY":0.0001012,"INCLINATION":53.2164,"RA_OF_ASC_NODE":199.4451,"ARG_OF_PERICENTER":102.4325,"MEAN_ANOMALY":257.678,"EPHEMERIS_TYPE":0,"CLASSIFICATION_TYPE":"U","NORAD_CAT_ID":53248,"ELEMENT_SET_NO":999,"REV_AT_EPOCH":20130,"BSTAR":5.7494e-5,"MEAN_MOTION_DOT":6.27e-6,"MEAN_MOTION_DDOT":0},{"OBJECT_NAME":"YUNYAO-1 45","OBJECT_ID":"2025-059C","EPOCH":"2026-03-09T23:25:14.115648","MEAN_MOTION":15.10348188,"ECCENTRICITY":0.00171316,"INCLINATION":97.6099,"RA_OF_ASC_NODE":251.0366,"ARG_OF_PERICENTER":134.7318,"MEAN_ANOMALY":225.5309,"EPHEMERIS_TYPE":0,"CLASSIFICATION_TYPE":"U","NORAD_CAT_ID":63346,"ELEMENT_SET_NO":999,"REV_AT_EPOCH":5332,"BSTAR":0.00033512738,"MEAN_MOTION_DOT":5.451e-5,"MEAN_MOTION_DDOT":0}]
